{
  "type": "FeatureCollection",
  "features": [
    {
      "type": "Feature",
      "properties": {
        "norad_id": 24876,
        "name": "GPS BIIR-2  (PRN 13)",
        "group": "gnss",
        "lat": -23.64728719349933,
        "lon": -57.39603794390508,
        "alt_km": 20411.99707124364,
        "timestamp": "2025-12-25T11:37:44.677310+00:00",
        "meta_object_name": "GPS BIIR-2  (PRN 13)",
        "meta_object_id": "1997-035A",
        "meta_epoch": "2025-12-24T16:46:01.702848",
        "meta_mean_motion": 2.00563657,
        "meta_eccentricity": 0.0096852,
        "meta_inclination": 55.9008,
        "meta_ra_of_asc_node": 105.4012,
        "meta_arg_of_pericenter": 56.9369,
        "meta_mean_anomaly": 303.9882,
        "meta_ephemeris_type": 0,
        "meta_classification_type": "U",
        "meta_norad_cat_id": 24876,
        "meta_element_set_no": 999,
        "meta_rev_at_epoch": 20845,
        "meta_bstar": 0,
        "meta_mean_motion_dot": 2.7e-07,
        "meta_mean_motion_ddot": 0,
        "tle_line1": "1 24876U 97035A   25358.69863082  .00000027  00000+0  00000+0 0  9993",
        "tle_line2": "2 24876  55.9008 105.4012 0096852  56.9369 303.9882  2.00563657208453"
      },
      "geometry": {
        "type": "Point",
        "coordinates": [
          -57.39603794390508,
          -23.64728719349933
        ]
      }
    },
    {
      "type": "Feature",
      "properties": {
        "norad_id": 26360,
        "name": "GPS BIIR-4  (PRN 20)",
        "group": "gnss",
        "lat": -44.735305938196284,
        "lon": -17.509337244300028,
        "alt_km": 20131.36927564681,
        "timestamp": "2025-12-25T11:37:44.677355+00:00",
        "meta_object_name": "GPS BIIR-4  (PRN 20)",
        "meta_object_id": "2000-025A",
        "meta_epoch": "2025-12-25T02:59:32.924832",
        "meta_mean_motion": 2.00566595,
        "meta_eccentricity": 0.0038893,
        "meta_inclination": 55.0525,
        "meta_ra_of_asc_node": 26.337,
        "meta_arg_of_pericenter": 243.1637,
        "meta_mean_anomaly": 157.4834,
        "meta_ephemeris_type": 0,
        "meta_classification_type": "U",
        "meta_norad_cat_id": 26360,
        "meta_element_set_no": 999,
        "meta_rev_at_epoch": 18778,
        "meta_bstar": 0,
        "meta_mean_motion_dot": -5.6e-07,
        "meta_mean_motion_ddot": 0,
        "tle_line1": "1 26360U 00025A   25359.12468663 -.00000056  00000+0  00000+0 0  9994",
        "tle_line2": "2 26360  55.0525  26.3370 0038893 243.1637 157.4834  2.00566595187780"
      },
      "geometry": {
        "type": "Point",
        "coordinates": [
          -17.509337244300028,
          -44.735305938196284
        ]
      }
    },
    {
      "type": "Feature",
      "properties": {
        "norad_id": 26407,
        "name": "GPS BIIR-5  (PRN 22)",
        "group": "gnss",
        "lat": 31.92963433024269,
        "lon": 16.07500681057945,
        "alt_km": 20494.376130308534,
        "timestamp": "2025-12-25T11:37:44.677374+00:00",
        "meta_object_name": "GPS BIIR-5  (PRN 22)",
        "meta_object_id": "2000-040A",
        "meta_epoch": "2025-12-25T00:58:38.180352",
        "meta_mean_motion": 2.00568081,
        "meta_eccentricity": 0.0125346,
        "meta_inclination": 54.8881,
        "meta_ra_of_asc_node": 222.0798,
        "meta_arg_of_pericenter": 302.0037,
        "meta_mean_anomaly": 237.7094,
        "meta_ephemeris_type": 0,
        "meta_classification_type": "U",
        "meta_norad_cat_id": 26407,
        "meta_element_set_no": 999,
        "meta_rev_at_epoch": 18645,
        "meta_bstar": 0,
        "meta_mean_motion_dot": 6.7e-07,
        "meta_mean_motion_ddot": 0,
        "tle_line1": "1 26407U 00040A   25359.04071968  .00000067  00000+0  00000+0 0  9993",
        "tle_line2": "2 26407  54.8881 222.0798 0125346 302.0037 237.7094  2.00568081186457"
      },
      "geometry": {
        "type": "Point",
        "coordinates": [
          16.07500681057945,
          31.92963433024269
        ]
      }
    },
    {
      "type": "Feature",
      "properties": {
        "norad_id": 27663,
        "name": "GPS BIIR-8  (PRN 16)",
        "group": "gnss",
        "lat": -54.60371860320563,
        "lon": 140.46965835836735,
        "alt_km": 20472.36118696941,
        "timestamp": "2025-12-25T11:37:44.677388+00:00",
        "meta_object_name": "GPS BIIR-8  (PRN 16)",
        "meta_object_id": "2003-005A",
        "meta_epoch": "2025-12-24T14:50:30.961824",
        "meta_mean_motion": 2.00570207,
        "meta_eccentricity": 0.01478624,
        "meta_inclination": 54.9207,
        "meta_ra_of_asc_node": 221.9058,
        "meta_arg_of_pericenter": 51.9747,
        "meta_mean_anomaly": 318.7946,
        "meta_ephemeris_type": 0,
        "meta_classification_type": "U",
        "meta_norad_cat_id": 27663,
        "meta_element_set_no": 999,
        "meta_rev_at_epoch": 16781,
        "meta_bstar": 0,
        "meta_mean_motion_dot": 6.6e-07,
        "meta_mean_motion_ddot": 0,
        "tle_line1": "1 27663U 03005A   25358.61841391  .00000066  00000+0  00000+0 0  9998",
        "tle_line2": "2 27663  54.9207 221.9058 0147862  51.9747 318.7946  2.00570207167815"
      },
      "geometry": {
        "type": "Point",
        "coordinates": [
          140.46965835836735,
          -54.60371860320563
        ]
      }
    },
    {
      "type": "Feature",
      "properties": {
        "norad_id": 28190,
        "name": "GPS BIIR-11 (PRN 19)",
        "group": "gnss",
        "lat": 51.62796773428306,
        "lon": -15.102383940200294,
        "alt_km": 20196.886172670464,
        "timestamp": "2025-12-25T11:37:44.677402+00:00",
        "meta_object_name": "GPS BIIR-11 (PRN 19)",
        "meta_object_id": "2004-009A",
        "meta_epoch": "2025-12-25T00:56:53.599200",
        "meta_mean_motion": 2.00560295,
        "meta_eccentricity": 0.0108571,
        "meta_inclination": 54.9745,
        "meta_ra_of_asc_node": 282.7233,
        "meta_arg_of_pericenter": 167.849,
        "meta_mean_anomaly": 305.251,
        "meta_ephemeris_type": 0,
        "meta_classification_type": "U",
        "meta_norad_cat_id": 28190,
        "meta_element_set_no": 999,
        "meta_rev_at_epoch": 15945,
        "meta_bstar": 0,
        "meta_mean_motion_dot": -2.6e-07,
        "meta_mean_motion_ddot": 0,
        "tle_line1": "1 28190U 04009A   25359.03950925 -.00000026  00000+0  00000+0 0  9997",
        "tle_line2": "2 28190  54.9745 282.7233 0108571 167.8490 305.2510  2.00560295159459"
      },
      "geometry": {
        "type": "Point",
        "coordinates": [
          -15.102383940200294,
          51.62796773428306
        ]
      }
    },
    {
      "type": "Feature",
      "properties": {
        "norad_id": 28474,
        "name": "GPS BIIR-13 (PRN 02)",
        "group": "gnss",
        "lat": 35.657221272767096,
        "lon": 122.00528417070383,
        "alt_km": 20630.39467745958,
        "timestamp": "2025-12-25T11:37:44.677415+00:00",
        "meta_object_name": "GPS BIIR-13 (PRN 02)",
        "meta_object_id": "2004-045A",
        "meta_epoch": "2025-12-24T12:26:01.037184",
        "meta_mean_motion": 2.00570034,
        "meta_eccentricity": 0.01709749,
        "meta_inclination": 55.2348,
        "meta_ra_of_asc_node": 331.9322,
        "meta_arg_of_pericenter": 309.7767,
        "meta_mean_anomaly": 207.2854,
        "meta_ephemeris_type": 0,
        "meta_classification_type": "U",
        "meta_norad_cat_id": 28474,
        "meta_element_set_no": 999,
        "meta_rev_at_epoch": 15492,
        "meta_bstar": 0,
        "meta_mean_motion_dot": -6e-07,
        "meta_mean_motion_ddot": 0,
        "tle_line1": "1 28474U 04045A   25358.51806756 -.00000060  00000+0  00000+0 0  9994",
        "tle_line2": "2 28474  55.2348 331.9322 0170974 309.7767 207.2854  2.00570034154924"
      },
      "geometry": {
        "type": "Point",
        "coordinates": [
          122.00528417070383,
          35.657221272767096
        ]
      }
    },
    {
      "type": "Feature",
      "properties": {
        "norad_id": 28874,
        "name": "GPS BIIRM-1 (PRN 17)",
        "group": "gnss",
        "lat": 54.762998426949515,
        "lon": 18.368915050980636,
        "alt_km": 20503.11775565575,
        "timestamp": "2025-12-25T11:37:44.677427+00:00",
        "meta_object_name": "GPS BIIRM-1 (PRN 17)",
        "meta_object_id": "2005-038A",
        "meta_epoch": "2025-12-24T20:45:31.120992",
        "meta_mean_motion": 2.00577585,
        "meta_eccentricity": 0.0131256,
        "meta_inclination": 55.0211,
        "meta_ra_of_asc_node": 280.2128,
        "meta_arg_of_pericenter": 293.8377,
        "meta_mean_anomaly": 72.9738,
        "meta_ephemeris_type": 0,
        "meta_classification_type": "U",
        "meta_norad_cat_id": 28874,
        "meta_element_set_no": 999,
        "meta_rev_at_epoch": 14834,
        "meta_bstar": 0,
        "meta_mean_motion_dot": -2.3e-07,
        "meta_mean_motion_ddot": 0,
        "tle_line1": "1 28874U 05038A   25358.86494353 -.00000023  00000+0  00000+0 0  9994",
        "tle_line2": "2 28874  55.0211 280.2128 0131256 293.8377  72.9738  2.00577585148340"
      },
      "geometry": {
        "type": "Point",
        "coordinates": [
          18.368915050980636,
          54.762998426949515
        ]
      }
    }
  ]
}